COSMOS 2413 (712)       
1 28509U 04053B   16035.56416909  .00000075  00000-0  00000-0 0  9993
2 28509  63.1325 194.8559 0005506 163.1531  59.1859  2.13101798 86444
COSMOS 2419 (714)       
1 28915U 05050A   16035.69452238  .00000016  00000-0  00000-0 0  9996
2 28915  65.2618  82.6727 0015566 345.1853 337.2423  2.13111808 78700
COSMOS 2425 (716)       
1 29670U 06062A   16035.80876547 -.00000042  00000-0  10000-3 0  9999
2 29670  65.6892 321.6376 0023373 343.5596 127.7809  2.13104961 70911
COSMOS 2426 (717)       
1 29671U 06062B   16036.45006447 -.00000039  00000-0  10000-3 0  9992
2 29671  65.7059 321.6944 0015026 168.2206 296.9653  2.13103082 70936
COSMOS 2424 (715)       
1 29672U 06062C   16036.33693016 -.00000039  00000-0  10000-3 0  9994
2 29672  65.6910 321.6296 0014456 167.2547  27.8262  2.13102093 70922
COSMOS 2433 (720)       
1 32275U 07052A   16035.64316598  .00000016  00000-0  10000-3 0  9991
2 32275  65.2772  82.4424 0004402 263.4765 272.6617  2.13105036 64425
COSMOS 2432 (719)       
1 32276U 07052B   16036.14012834  .00000020  00000-0  10000-3 0  9999
2 32276  65.2895  82.4895 0012354 329.5240 181.9861  2.13104248 64439
COSMOS 2434 (721)       
1 32393U 07065A   16035.68615448 -.00000043  00000-0  00000+0 0  9992
2 32393  65.3089 321.0285 0002432  81.7572  20.4691  2.13102745 63135
COSMOS 2436 (723)       
1 32395U 07065C   16036.53228573 -.00000038  00000-0  10000-3 0  9997
2 32395  65.3215 321.0401 0018758 350.3557 132.9875  2.13102838 63084
COSMOS 2443 (725)       
1 33379U 08046B   16036.41745958  .00000023  00000-0  10000-3 0  9991
2 33379  65.2062  81.8461 0018332 190.6423 126.2318  2.13101500 57309
COSMOS 2456 (730)       
1 36111U 09070A   16036.10098102  .00000083  00000-0  00000+0 0  9995
2 36111  64.1870 200.6240 0003550 351.1621 238.2130  2.13102883 47802
COSMOS 2457 (733)       
1 36112U 09070B   16036.36996020  .00000080  00000-0  00000+0 0  9997
2 36112  64.1688 200.5444 0007447 145.8480  60.7729  2.13101555 47813
COSMOS 2458 (734)       
1 36113U 09070C   16036.25891839  .00000081  00000-0  10000-3 0  9994
2 36113  64.1741 200.5533 0003188  60.8049 107.9064  2.13101980 47816
COSMOS 2459 (731)       
1 36400U 10007A   16035.64542731  .00000016  00000-0  10000-3 0  9999
2 36400  65.1844  81.6104 0028437 349.4923  54.9040  2.13102356 46152
COSMOS 2461 (735)       
1 36401U 10007B   16035.74310914  .00000017  00000-0  10000-3 0  9998
2 36401  65.1772  81.5897 0004303  67.6462 322.2338  2.13102300 46154
COSMOS 2460 (732)       
1 36402U 10007C   16036.15001558  .00000020  00000-0  10000-3 0  9990
2 36402  65.1680  81.5545 0001776 262.2828 121.8547  2.13101987 46169
COSMOS 2466 (738)       
1 37137U 10041A   16036.47805095 -.00000039  00000-0  10000-3 0  9998
2 37137  64.8920 321.1711 0018356 154.7410  58.6030  2.13102300 42249
COSMOS 2465 (737)       
1 37138U 10041B   16035.59759072 -.00000044  00000-0  00000-0 0  9996
2 37138  64.9090 321.2719 0032915 169.4488 271.0071  2.13102932 42228
COSMOS 2464 (736)       
1 37139U 10041C   16035.63077669 -.00000044  00000-0  00000-0 0  9997
2 37139  64.9112 321.2632 0023261  10.3262 230.1789  2.13102933 42229
COSMOS 2471 (701K)      
1 37372U 11009A   16036.45430220  .00000023  00000-0  00000+0 0  9993
2 37372  65.1659  81.4939 0009044 239.1656 150.5613  2.13102992 38448
COSMOS 2474 (742)       
1 37829U 11055A   16036.46351740  .00000081  00000-0  00000+0 0  9995
2 37829  64.5113 200.9688 0005549 248.2192 121.2787  2.13101905 33810
COSMOS 2476 (744)       
1 37867U 11064A   16035.50720818  .00000088  00000-0  00000-0 0  9995
2 37867  64.4911 201.0860 0014401 245.0733 156.5481  2.13101997 33143
COSMOS 2477 (745)       
1 37868U 11064B   16035.88023692  .00000085  00000-0  00000+0 0  9999
2 37868  64.4995 201.1122 0012400 246.1433 261.0450  2.13101841 33106
COSMOS 2475 (743)       
1 37869U 11064C   16035.69687524  .00000087  00000-0  00000+0 0  9991
2 37869  64.5068 201.1048 0018001 278.5792  44.0114  2.13102027 33109
COSMOS 2478 (746)       
1 37938U 11071A   16035.83742409  .00000018  00000-0  00000+0 0  9990
2 37938  65.1915  81.7349 0014632 241.2614 154.9886  2.13088499 32726
COSMOS 2485 (747)       
1 39155U 13019A   16035.69362868  .00000087  00000-0  00000-0 0  9995
2 39155  64.6602 201.0006 0014719 238.8096 351.0169  2.13102032 21615
COSMOS 2492 (754)       
1 39620U 14012A   16034.43150499  .00000003  00000-0  10000-3 0  9994
2 39620  65.0560  81.6197 0016293 327.0427  47.2993  2.13103686 14540
COSMOS 2500 (755)       
1 40001U 14032A   16036.41524083  .00000022  00000-0  00000+0 0  9991
2 40001  64.9974  81.5865 0007216 217.6641 102.5122  2.13102964 12792
COSMOS 2501 (702K)      
1 40315U 14075A   16035.63077669 -.00000045  00000-0  00000-0 0  9999
2 40315  64.6796 322.7622 0017478 240.9906 359.2800  2.13101451  9187
